[{"OBJECT_NAME":"AEROCUBE 4.5A","OBJECT_ID":"2012-048K","EPOCH":"2026-03-09T23:30:53.651232","MEAN_MOTION":15.62097136,"ECCENTRICITY":0.00407508,"INCLINATION":64.6384,"RA_OF_ASC_NODE":19.0525,"ARG_OF_PERICENTER":211.9552,"MEAN_ANOMALY":147.9122,"EPHEMERIS_TYPE":0,"CLASSIFICATION_TYPE":"U","NORAD_CAT_ID":38767,"ELEMENT_SET_NO":999,"REV_AT_EPOCH":35703,"BSTAR":0.0010922172,"MEAN_MOTION_DOT":0.00101362,"MEAN_MOTION_DDOT":0},{"OBJECT_NAME":"STARLINK-11204 [DTC]","OBJECT_ID":"2024-155H","EPOCH":"2026-03-09T22:32:44.331936","MEAN_MOTION":15.69687814,"ECCENTRICITY":8.369e-5,"INCLINATION":53.1572,"RA_OF_ASC_NODE":339.869,"ARG_OF_PERICENTER":113.1847,"MEAN_ANOMALY":246.9259,"EPHEMERIS_TYPE":0,"CLASSIFICATION_TYPE":"U","NORAD_CAT_ID":60931,"ELEMENT_SET_NO":999,"REV_AT_EPOCH":8844,"BSTAR":3.1450528e-5,"MEAN_MOTION_DOT":3.22e-5,"MEAN_MOTION_DDOT":0}]
